{
  "type": "FeatureCollection",
  "features": [
    {
      "type": "Feature",
      "properties": {
        "norad_id": 37064,
        "name": "FENGYUN 1C DEB",
        "group": "fengyun-1c-debris",
        "lat": -5.893703622916835,
        "lon": -47.47552634260069,
        "alt_km": 813.6199735530681,
        "timestamp": "2025-12-07T07:31:36.587459+00:00",
        "meta_object_name": "FENGYUN 1C DEB",
        "meta_object_id": "1999-025EEY",
        "meta_epoch": "2025-11-25T16:29:09.460320",
        "meta_mean_motion": 14.15612933,
        "meta_eccentricity": 0.01070067,
        "meta_inclination": 98.9095,
        "meta_ra_of_asc_node": 121.83,
        "meta_arg_of_pericenter": 150.7609,
        "meta_mean_anomaly": 209.9612,
        "meta_ephemeris_type": 0,
        "meta_classification_type": "U",
        "meta_norad_cat_id": 37064,
        "meta_element_set_no": 999,
        "meta_rev_at_epoch": 81294,
        "meta_bstar": 0.0049331234,
        "meta_mean_motion_dot": 0.00010179,
        "meta_mean_motion_ddot": 0,
        "tle_line1": "1 37064U 99025EEY 25329.68691505  .00010179  00000+0  49331-2 0  9995",
        "tle_line2": "2 37064  98.9095 121.8300 0107006 150.7609 209.9612 14.15612933812947"
      },
      "geometry": {
        "type": "Point",
        "coordinates": [
          -47.47552634260069,
          -5.893703622916835
        ]
      }
    },
    {
      "type": "Feature",
      "properties": {
        "norad_id": 37065,
        "name": "FENGYUN 1C DEB",
        "group": "fengyun-1c-debris",
        "lat": 75.92960227577834,
        "lon": 44.70911817668513,
        "alt_km": 1237.5743130631527,
        "timestamp": "2025-12-07T07:31:36.587469+00:00",
        "meta_object_name": "FENGYUN 1C DEB",
        "meta_object_id": "1999-025EEZ",
        "meta_epoch": "2025-11-29T04:41:54.899520",
        "meta_mean_motion": 13.59013412,
        "meta_eccentricity": 0.0298251,
        "meta_inclination": 103.2865,
        "meta_ra_of_asc_node": 143.2258,
        "meta_arg_of_pericenter": 271.3733,
        "meta_mean_anomaly": 85.3247,
        "meta_ephemeris_type": 0,
        "meta_classification_type": "U",
        "meta_norad_cat_id": 37065,
        "meta_element_set_no": 999,
        "meta_rev_at_epoch": 22018,
        "meta_bstar": 0.0027486644,
        "meta_mean_motion_dot": 2.63e-05,
        "meta_mean_motion_ddot": 0,
        "tle_line1": "1 37065U 99025EEZ 25333.19577430  .00002630  00000+0  27487-2 0  9998",
        "tle_line2": "2 37065 103.2865 143.2258 0298251 271.3733  85.3247 13.59013412220187"
      },
      "geometry": {
        "type": "Point",
        "coordinates": [
          44.70911817668513,
          75.92960227577834
        ]
      }
    },
    {
      "type": "Feature",
      "properties": {
        "norad_id": 37067,
        "name": "FENGYUN 1C DEB",
        "group": "fengyun-1c-debris",
        "lat": 0.39886068046713546,
        "lon": 102.7012620205535,
        "alt_km": 826.7541295643314,
        "timestamp": "2025-12-07T07:31:36.587480+00:00",
        "meta_object_name": "FENGYUN 1C DEB",
        "meta_object_id": "1999-025EFB",
        "meta_epoch": "2025-12-05T01:31:18.563520",
        "meta_mean_motion": 14.00188813,
        "meta_eccentricity": 0.01548335,
        "meta_inclination": 99.5373,
        "meta_ra_of_asc_node": 280.2882,
        "meta_arg_of_pericenter": 132.7207,
        "meta_mean_anomaly": 228.7111,
        "meta_ephemeris_type": 0,
        "meta_classification_type": "U",
        "meta_norad_cat_id": 37067,
        "meta_element_set_no": 999,
        "meta_rev_at_epoch": 57301,
        "meta_bstar": 0.0059507708,
        "meta_mean_motion_dot": 9.709e-05,
        "meta_mean_motion_ddot": 0,
        "tle_line1": "1 37067U 99025EFB 25339.06340930  .00009709  00000+0  59508-2 0  9998",
        "tle_line2": "2 37067  99.5373 280.2882 0154833 132.7207 228.7111 14.00188813573019"
      },
      "geometry": {
        "type": "Point",
        "coordinates": [
          102.7012620205535,
          0.39886068046713546
        ]
      }
    },
    {
      "type": "Feature",
      "properties": {
        "norad_id": 37069,
        "name": "FENGYUN 1C DEB",
        "group": "fengyun-1c-debris",
        "lat": -14.58522110825132,
        "lon": 132.468292249429,
        "alt_km": 1035.1513693740708,
        "timestamp": "2025-12-07T07:31:36.587490+00:00",
        "meta_object_name": "FENGYUN 1C DEB",
        "meta_object_id": "1999-025EFD",
        "meta_epoch": "2025-12-04T04:55:22.230624",
        "meta_mean_motion": 13.37917724,
        "meta_eccentricity": 0.0425847,
        "meta_inclination": 95.8476,
        "meta_ra_of_asc_node": 312.1985,
        "meta_arg_of_pericenter": 279.5864,
        "meta_mean_anomaly": 75.7415,
        "meta_ephemeris_type": 0,
        "meta_classification_type": "U",
        "meta_norad_cat_id": 37069,
        "meta_element_set_no": 999,
        "meta_rev_at_epoch": 87594,
        "meta_bstar": 0.0066764,
        "meta_mean_motion_dot": 5.926e-05,
        "meta_mean_motion_ddot": 0,
        "tle_line1": "1 37069U 99025EFD 25338.20511841  .00005926  00000+0  66764-2 0  9995",
        "tle_line2": "2 37069  95.8476 312.1985 0425847 279.5864  75.7415 13.37917724875942"
      },
      "geometry": {
        "type": "Point",
        "coordinates": [
          132.468292249429,
          -14.58522110825132
        ]
      }
    },
    {
      "type": "Feature",
      "properties": {
        "norad_id": 37077,
        "name": "FENGYUN 1C DEB",
        "group": "fengyun-1c-debris",
        "lat": -80.91844049824385,
        "lon": 151.59783330065784,
        "alt_km": 744.4345865601308,
        "timestamp": "2025-12-07T07:31:36.587500+00:00",
        "meta_object_name": "FENGYUN 1C DEB",
        "meta_object_id": "1999-025EFM",
        "meta_epoch": "2025-12-05T04:17:17.651328",
        "meta_mean_motion": 14.41168731,
        "meta_eccentricity": 0.00957072,
        "meta_inclination": 99.0353,
        "meta_ra_of_asc_node": 53.8847,
        "meta_arg_of_pericenter": 351.1246,
        "meta_mean_anomaly": 8.8245,
        "meta_ephemeris_type": 0,
        "meta_classification_type": "U",
        "meta_norad_cat_id": 37077,
        "meta_element_set_no": 999,
        "meta_rev_at_epoch": 84846,
        "meta_bstar": 0.00063491938,
        "meta_mean_motion_dot": 2.111e-05,
        "meta_mean_motion_ddot": 0,
        "tle_line1": "1 37077U 99025EFM 25339.17867652  .00002111  00000+0  63492-3 0  9994",
        "tle_line2": "2 37077  99.0353  53.8847 0095707 351.1246   8.8245 14.41168731848463"
      },
      "geometry": {
        "type": "Point",
        "coordinates": [
          151.59783330065784,
          -80.91844049824385
        ]
      }
    },
    {
      "type": "Feature",
      "properties": {
        "norad_id": 37079,
        "name": "FENGYUN 1C DEB",
        "group": "fengyun-1c-debris",
        "lat": 61.28912333379023,
        "lon": -47.552400076904405,
        "alt_km": 681.9384676596837,
        "timestamp": "2025-12-07T07:31:36.587510+00:00",
        "meta_object_name": "FENGYUN 1C DEB",
        "meta_object_id": "1999-025EFP",
        "meta_epoch": "2025-12-06T03:01:13.167840",
        "meta_mean_motion": 14.59499818,
        "meta_eccentricity": 0.00126214,
        "meta_inclination": 98.8577,
        "meta_ra_of_asc_node": 114.6392,
        "meta_arg_of_pericenter": 162.9927,
        "meta_mean_anomaly": 197.1696,
        "meta_ephemeris_type": 0,
        "meta_classification_type": "U",
        "meta_norad_cat_id": 37079,
        "meta_element_set_no": 999,
        "meta_rev_at_epoch": 64519,
        "meta_bstar": 0.0062109056,
        "meta_mean_motion_dot": 0.00029587,
        "meta_mean_motion_ddot": 0,
        "tle_line1": "1 37079U 99025EFP 25340.12584685  .00029587  00000+0  62109-2 0  9994",
        "tle_line2": "2 37079  98.8577 114.6392 0012621 162.9927 197.1696 14.59499818645198"
      },
      "geometry": {
        "type": "Point",
        "coordinates": [
          -47.552400076904405,
          61.28912333379023
        ]
      }
    },
    {
      "type": "Feature",
      "properties": {
        "norad_id": 37081,
        "name": "FENGYUN 1C DEB",
        "group": "fengyun-1c-debris",
        "lat": 50.04480543918652,
        "lon": -35.73215109839497,
        "alt_km": 946.6320922457389,
        "timestamp": "2025-12-07T07:31:36.587520+00:00",
        "meta_object_name": "FENGYUN 1C DEB",
        "meta_object_id": "1999-025EFR",
        "meta_epoch": "2025-12-04T16:05:13.028352",
        "meta_mean_motion": 14.13719832,
        "meta_eccentricity": 0.026348,
        "meta_inclination": 98.7084,
        "meta_ra_of_asc_node": 131.1485,
        "meta_arg_of_pericenter": 11.9086,
        "meta_mean_anomaly": 348.8157,
        "meta_ephemeris_type": 0,
        "meta_classification_type": "U",
        "meta_norad_cat_id": 37081,
        "meta_element_set_no": 999,
        "meta_rev_at_epoch": 58460,
        "meta_bstar": 0.0070093,
        "meta_mean_motion_dot": 0.00018467,
        "meta_mean_motion_ddot": 0,
        "tle_line1": "1 37081U 99025EFR 25338.67028968  .00018467  00000+0  70093-2 0  9997",
        "tle_line2": "2 37081  98.7084 131.1485 0263480  11.9086 348.8157 14.13719832584606"
      },
      "geometry": {
        "type": "Point",
        "coordinates": [
          -35.73215109839497,
          50.04480543918652
        ]
      }
    }
  ]
}